0 THOR ABLESTAR DEB
1 00147U 61015AH  13281.62505758  .00000654  00000-0  36285-3 0  6065
2 00147 066.6210 077.9422 0050594 054.4058 020.6712 14.16885522677128
0 THOR ABLESTAR DEB
1 00147U 61015AH  13282.83162872  .00000591  00000-0  33169-3 0  6074
2 00147 066.6212 074.8434 0050638 053.4362 055.2689 14.16889655677291
0 THOR ABLESTAR DEB
1 00147U 61015AH  13284.51776347  .00000559  00000-0  31588-3 0  6087
2 00147 066.6216 070.5127 0050728 052.1088 016.0648 14.16893010677535
0 THOR ABLESTAR DEB
1 00147U 61015AH  13285.80394438  .00000467  00000-0  27043-3 0  6097
2 00147 066.6218 067.2093 0050747 051.0773 096.7728 14.16894724677719
0 THOR ABLESTAR DEB
1 00147U 61015AH  13287.48056374  .00000425  00000-0  25006-3 0  6100
2 00147 066.6221 062.9033 0050810 049.7633 009.0582 14.16897467677957
0 THOR ABLESTAR DEB
1 00147U 61015AH  13288.82519914  .00000500  00000-0  28689-3 0  6118
2 00147 066.6222 059.4500 0050880 048.6730 027.9753 14.16900000678140
0 THOR ABLESTAR DEB
1 00147U 61015AH  13290.73763418  .00000406  00000-0  24055-3 0  6120
2 00147 066.6222 054.5387 0050986 047.2272 063.1221 14.16903189678415
0 THOR ABLESTAR DEB
1 00147U 61015AH  13291.78970031  .00000417  00000-0  24605-3 0  6131
2 00147 066.6221 051.8369 0051051 046.4240 029.6277 14.16903942678565
0 THOR ABLESTAR DEB
1 00147U 61015AH  13293.48320905  .00000442  00000-0  25831-3 0  6140
2 00147 066.6219 047.4878 0051160 045.1305 028.0895 14.16906222678807
0 THOR ABLESTAR DEB
1 00147U 61015AH  13294.76955361  .00000474  00000-0  27407-3 0  6159
2 00147 066.6218 044.1843 0051240 044.1592 109.6358 14.16907746678989
